RANGE-A                 
1 43773U 18099R   26068.70590171  .00005536  00000+0  32166-3 0  9992
2 43773  97.4107 114.1927 0009674 340.4473  19.6386 15.12458640397457
STARLINK-3245           
1 50170U 21125Q   26068.76896961 -.00000239  00000+0  30517-5 0  9993
2 50170  53.2168 248.7659 0001192  85.6681 274.4448 15.08847997236606
